[{"OBJECT_NAME":"PROBA-1","OBJECT_ID":"2001-049B","EPOCH":"2026-03-09T22:57:25.772256","MEAN_MOTION":15.07031721,"ECCENTRICITY":0.00568356,"INCLINATION":97.9638,"RA_OF_ASC_NODE":74.0417,"ARG_OF_PERICENTER":98.1776,"MEAN_ANOMALY":262.5903,"EPHEMERIS_TYPE":0,"CLASSIFICATION_TYPE":"U","NORAD_CAT_ID":26958,"ELEMENT_SET_NO":999,"REV_AT_EPOCH":32867,"BSTAR":0.00028513173,"MEAN_MOTION_DOT":4.362e-5,"MEAN_MOTION_DDOT":0},{"OBJECT_NAME":"STARLINK-5362","OBJECT_ID":"2023-015AW","EPOCH":"2026-03-09T22:00:01.999584","MEAN_MOTION":15.14253671,"ECCENTRICITY":0.00016673,"INCLINATION":42.9997,"RA_OF_ASC_NODE":337.1524,"ARG_OF_PERICENTER":280.7913,"MEAN_ANOMALY":131.0902,"EPHEMERIS_TYPE":0,"CLASSIFICATION_TYPE":"U","NORAD_CAT_ID":55493,"ELEMENT_SET_NO":999,"REV_AT_EPOCH":572,"BSTAR":0.0025065556,"MEAN_MOTION_DOT":0.00046733,"MEAN_MOTION_DDOT":0}]
